{
  "type": "FeatureCollection",
  "features": [
    {
      "type": "Feature",
      "properties": {
        "norad_id": 32376,
        "name": "COSMO-SKYMED 2",
        "group": "resource",
        "lat": 15.872464187501054,
        "lon": 4.6714913497691395,
        "alt_km": 623.1281113858659,
        "timestamp": "2025-12-27T07:26:24.877578+00:00",
        "meta_object_name": "COSMO-SKYMED 2",
        "meta_object_id": "2007-059A",
        "meta_epoch": "2025-12-26T22:36:07.958592",
        "meta_mean_motion": 14.82160271,
        "meta_eccentricity": 0.00012932,
        "meta_inclination": 97.8807,
        "meta_ra_of_asc_node": 182.0518,
        "meta_arg_of_pericenter": 83.1684,
        "meta_mean_anomaly": 276.9676,
        "meta_ephemeris_type": 0,
        "meta_classification_type": "U",
        "meta_norad_cat_id": 32376,
        "meta_element_set_no": 999,
        "meta_rev_at_epoch": 97648,
        "meta_bstar": 8.479031e-05,
        "meta_mean_motion_dot": 6.23e-06,
        "meta_mean_motion_ddot": 0,
        "tle_line1": "1 32376U 07059A   25360.94175878  .00000623  00000+0  84790-4 0  9999",
        "tle_line2": "2 32376  97.8807 182.0518 0001293  83.1684 276.9676 14.82160271976481"
      },
      "geometry": {
        "type": "Point",
        "coordinates": [
          4.6714913497691395,
          15.872464187501054
        ]
      }
    },
    {
      "type": "Feature",
      "properties": {
        "norad_id": 32382,
        "name": "RADARSAT-2",
        "group": "resource",
        "lat": -77.52946764192079,
        "lon": 142.63486187951506,
        "alt_km": 799.9069405855407,
        "timestamp": "2025-12-27T07:26:24.877588+00:00",
        "meta_object_name": "RADARSAT-2",
        "meta_object_id": "2007-061A",
        "meta_epoch": "2025-12-26T23:30:23.914080",
        "meta_mean_motion": 14.29985449,
        "meta_eccentricity": 0.00011345,
        "meta_inclination": 98.5801,
        "meta_ra_of_asc_node": 5.3623,
        "meta_arg_of_pericenter": 86.4478,
        "meta_mean_anomaly": 273.6834,
        "meta_ephemeris_type": 0,
        "meta_classification_type": "U",
        "meta_norad_cat_id": 32382,
        "meta_element_set_no": 999,
        "meta_rev_at_epoch": 94134,
        "meta_bstar": 2.7880353e-05,
        "meta_mean_motion_dot": 2.8e-07,
        "meta_mean_motion_ddot": 0,
        "tle_line1": "1 32382U 07061A   25360.97944345  .00000028  00000+0  27880-4 0  9991",
        "tle_line2": "2 32382  98.5801   5.3623 0001134  86.4478 273.6834 14.29985449941345"
      },
      "geometry": {
        "type": "Point",
        "coordinates": [
          142.63486187951506,
          -77.52946764192079
        ]
      }
    },
    {
      "type": "Feature",
      "properties": {
        "norad_id": 32783,
        "name": "CARTOSAT-2A",
        "group": "resource",
        "lat": 43.92210690840268,
        "lon": -121.74694723895318,
        "alt_km": 636.5531563776194,
        "timestamp": "2025-12-27T07:26:24.877599+00:00",
        "meta_object_name": "CARTOSAT-2A",
        "meta_object_id": "2008-021A",
        "meta_epoch": "2025-12-26T22:42:37.951776",
        "meta_mean_motion": 14.78954627,
        "meta_eccentricity": 0.00108431,
        "meta_inclination": 97.7908,
        "meta_ra_of_asc_node": 50.324,
        "meta_arg_of_pericenter": 317.0772,
        "meta_mean_anomaly": 42.9592,
        "meta_ephemeris_type": 0,
        "meta_classification_type": "U",
        "meta_norad_cat_id": 32783,
        "meta_element_set_no": 999,
        "meta_rev_at_epoch": 95334,
        "meta_bstar": 4.2188554e-05,
        "meta_mean_motion_dot": 2.61e-06,
        "meta_mean_motion_ddot": 0,
        "tle_line1": "1 32783U 08021A   25360.94627259  .00000261  00000+0  42189-4 0  9990",
        "tle_line2": "2 32783  97.7908  50.3240 0010843 317.0772  42.9592 14.78954627953340"
      },
      "geometry": {
        "type": "Point",
        "coordinates": [
          -121.74694723895318,
          43.92210690840268
        ]
      }
    },
    {
      "type": "Feature",
      "properties": {
        "norad_id": 33320,
        "name": "HUANJING 1A (HJ-1A)",
        "group": "resource",
        "lat": -53.941240041347825,
        "lon": 158.35516660256997,
        "alt_km": 630.7063158056771,
        "timestamp": "2025-12-27T07:26:24.877609+00:00",
        "meta_object_name": "HUANJING 1A (HJ-1A)",
        "meta_object_id": "2008-041A",
        "meta_epoch": "2025-12-26T23:54:33.859008",
        "meta_mean_motion": 14.83439235,
        "meta_eccentricity": 0.0019003,
        "meta_inclination": 97.6555,
        "meta_ra_of_asc_node": 348.6999,
        "meta_arg_of_pericenter": 348.6851,
        "meta_mean_anomaly": 11.3933,
        "meta_ephemeris_type": 0,
        "meta_classification_type": "U",
        "meta_norad_cat_id": 33320,
        "meta_element_set_no": 999,
        "meta_rev_at_epoch": 93287,
        "meta_bstar": 0.00024177131,
        "meta_mean_motion_dot": 1.94e-05,
        "meta_mean_motion_ddot": 0,
        "tle_line1": "1 33320U 08041A   25360.99622522  .00001940  00000+0  24177-3 0  9994",
        "tle_line2": "2 33320  97.6555 348.6999 0019003 348.6851  11.3933 14.83439235932877"
      },
      "geometry": {
        "type": "Point",
        "coordinates": [
          158.35516660256997,
          -53.941240041347825
        ]
      }
    },
    {
      "type": "Feature",
      "properties": {
        "norad_id": 33321,
        "name": "HUANJING 1B (HJ-1B)",
        "group": "resource",
        "lat": 64.76250266043326,
        "lon": -23.888528634360533,
        "alt_km": 592.7672230444168,
        "timestamp": "2025-12-27T07:26:24.877620+00:00",
        "meta_object_name": "HUANJING 1B (HJ-1B)",
        "meta_object_id": "2008-041B",
        "meta_epoch": "2025-12-26T23:02:56.150304",
        "meta_mean_motion": 14.82860511,
        "meta_eccentricity": 0.00376229,
        "meta_inclination": 97.6413,
        "meta_ra_of_asc_node": 352.3252,
        "meta_arg_of_pericenter": 30.6752,
        "meta_mean_anomaly": 329.665,
        "meta_ephemeris_type": 0,
        "meta_classification_type": "U",
        "meta_norad_cat_id": 33321,
        "meta_element_set_no": 999,
        "meta_rev_at_epoch": 93288,
        "meta_bstar": 0.00021365759,
        "meta_mean_motion_dot": 1.7e-05,
        "meta_mean_motion_ddot": 0,
        "tle_line1": "1 33321U 08041B   25360.96037211  .00001700  00000+0  21366-3 0  9998",
        "tle_line2": "2 33321  97.6413 352.3252 0037622  30.6752 329.6650 14.82860511932886"
      },
      "geometry": {
        "type": "Point",
        "coordinates": [
          -23.888528634360533,
          64.76250266043326
        ]
      }
    },
    {
      "type": "Feature",
      "properties": {
        "norad_id": 33331,
        "name": "GEOEYE 1",
        "group": "resource",
        "lat": -3.780029895364291,
        "lon": -108.13486167370675,
        "alt_km": 679.7515623530226,
        "timestamp": "2025-12-27T07:26:24.877631+00:00",
        "meta_object_name": "GEOEYE 1",
        "meta_object_id": "2008-042A",
        "meta_epoch": "2025-12-26T22:24:23.018400",
        "meta_mean_motion": 14.64719571,
        "meta_eccentricity": 0.00030851,
        "meta_inclination": 98.1235,
        "meta_ra_of_asc_node": 72.0343,
        "meta_arg_of_pericenter": 223.7241,
        "meta_mean_anomaly": 136.3718,
        "meta_ephemeris_type": 0,
        "meta_classification_type": "U",
        "meta_norad_cat_id": 33331,
        "meta_element_set_no": 999,
        "meta_rev_at_epoch": 92493,
        "meta_bstar": 0.00013951811,
        "meta_mean_motion_dot": 6.95e-06,
        "meta_mean_motion_ddot": 0,
        "tle_line1": "1 33331U 08042A   25360.93359975  .00000695  00000+0  13952-3 0  9995",
        "tle_line2": "2 33331  98.1235  72.0343 0003085 223.7241 136.3718 14.64719571924930"
      },
      "geometry": {
        "type": "Point",
        "coordinates": [
          -108.13486167370675,
          -3.780029895364291
        ]
      }
    },
    {
      "type": "Feature",
      "properties": {
        "norad_id": 33396,
        "name": "THEOS",
        "group": "resource",
        "lat": -42.79665624719791,
        "lon": -129.0718041603794,
        "alt_km": 832.1876314452156,
        "timestamp": "2025-12-27T07:26:24.877642+00:00",
        "meta_object_name": "THEOS",
        "meta_object_id": "2008-049A",
        "meta_epoch": "2025-12-26T23:37:41.051424",
        "meta_mean_motion": 14.20099159,
        "meta_eccentricity": 0.0001209,
        "meta_inclination": 98.5843,
        "meta_ra_of_asc_node": 58.6521,
        "meta_arg_of_pericenter": 92.866,
        "meta_mean_anomaly": 267.2655,
        "meta_ephemeris_type": 0,
        "meta_classification_type": "U",
        "meta_norad_cat_id": 33396,
        "meta_element_set_no": 999,
        "meta_rev_at_epoch": 89352,
        "meta_bstar": -2.8961804e-05,
        "meta_mean_motion_dot": -1.04e-06,
        "meta_mean_motion_ddot": 0,
        "tle_line1": "1 33396U 08049A   25360.98450291 -.00000104  00000+0 -28962-4 0  9996",
        "tle_line2": "2 33396  98.5843  58.6521 0001209  92.8660 267.2655 14.20099159893523"
      },
      "geometry": {
        "type": "Point",
        "coordinates": [
          -129.0718041603794,
          -42.79665624719791
        ]
      }
    }
  ]
}